[{"OBJECT_NAME":"GORIZONT 18 [-]","OBJECT_ID":"1989-052A","EPOCH":"2022-08-18T13:51:44.405856","MEAN_MOTION":0.99402461,"ECCENTRICITY":0.0032632,"INCLINATION":13.8731,"RA_OF_ASC_NODE":344.4933,"ARG_OF_PERICENTER":318.6818,"MEAN_ANOMALY":72.8239,"EPHEMERIS_TYPE":0,"CLASSIFICATION_TYPE":"U","NORAD_CAT_ID":20107,"ELEMENT_SET_NO":999,"REV_AT_EPOCH":12050,"BSTAR":0,"MEAN_MOTION_DOT":1.0e-8,"MEAN_MOTION_DDOT":0},{"OBJECT_NAME":"GORIZONT 19 [-]","OBJECT_ID":"1989-081A","EPOCH":"2022-08-18T20:47:34.387872","MEAN_MOTION":1.00335924,"ECCENTRICITY":0.000402,"INCLINATION":13.6036,"RA_OF_ASC_NODE":343.6827,"ARG_OF_PERICENTER":187.5237,"MEAN_ANOMALY":158.5851,"EPHEMERIS_TYPE":0,"CLASSIFICATION_TYPE":"U","NORAD_CAT_ID":20263,"ELEMENT_SET_NO":999,"REV_AT_EPOCH":3331,"BSTAR":0,"MEAN_MOTION_DOT":7.1e-7,"MEAN_MOTION_DDOT":0},{"OBJECT_NAME":"GORIZONT 20 [-]","OBJECT_ID":"1990-054A","EPOCH":"2022-08-18T21:03:41.602176","MEAN_MOTION":1.00276019,"ECCENTRICITY":0.0007305,"INCLINATION":14.0374,"RA_OF_ASC_NODE":346.5102,"ARG_OF_PERICENTER":160.8975,"MEAN_ANOMALY":232.7508,"EPHEMERIS_TYPE":0,"CLASSIFICATION_TYPE":"U","NORAD_CAT_ID":20659,"ELEMENT_SET_NO":999,"REV_AT_EPOCH":11767,"BSTAR":0,"MEAN_MOTION_DOT":-3.06e-6,"MEAN_MOTION_DDOT":0},{"OBJECT_NAME":"GORIZONT 21 [-]","OBJECT_ID":"1990-094A","EPOCH":"2022-08-18T20:06:08.132832","MEAN_MOTION":1.00386508,"ECCENTRICITY":0.0005136,"INCLINATION":14.0499,"RA_OF_ASC_NODE":347.281,"ARG_OF_PERICENTER":188.087,"MEAN_ANOMALY":0.0081,"EPHEMERIS_TYPE":0,"CLASSIFICATION_TYPE":"U","NORAD_CAT_ID":20923,"ELEMENT_SET_NO":999,"REV_AT_EPOCH":11642,"BSTAR":0,"MEAN_MOTION_DOT":-2.03e-6,"MEAN_MOTION_DDOT":0},{"OBJECT_NAME":"GORIZONT 22 [-]","OBJECT_ID":"1990-102A","EPOCH":"2022-08-18T12:56:21.378048","MEAN_MOTION":1.00282427,"ECCENTRICITY":0.0002815,"INCLINATION":14.0085,"RA_OF_ASC_NODE":347.6508,"ARG_OF_PERICENTER":42.9265,"MEAN_ANOMALY":270.898,"EPHEMERIS_TYPE":0,"CLASSIFICATION_TYPE":"U","NORAD_CAT_ID":20953,"ELEMENT_SET_NO":999,"REV_AT_EPOCH":11634,"BSTAR":0,"MEAN_MOTION_DOT":-2.98e-6,"MEAN_MOTION_DDOT":0},{"OBJECT_NAME":"GORIZONT 23 [-]","OBJECT_ID":"1991-046A","EPOCH":"2022-08-18T00:53:42.495360","MEAN_MOTION":0.9891002,"ECCENTRICITY":0.0001984,"INCLINATION":14.7658,"RA_OF_ASC_NODE":351.7961,"ARG_OF_PERICENTER":328.4274,"MEAN_ANOMALY":36.3608,"EPHEMERIS_TYPE":0,"CLASSIFICATION_TYPE":"U","NORAD_CAT_ID":21533,"ELEMENT_SET_NO":999,"REV_AT_EPOCH":3285,"BSTAR":0,"MEAN_MOTION_DOT":-1.26e-6,"MEAN_MOTION_DDOT":0},{"OBJECT_NAME":"GORIZONT 24 [-]","OBJECT_ID":"1991-074A","EPOCH":"2022-08-18T20:17:15.507168","MEAN_MOTION":0.98442871,"ECCENTRICITY":0.0017316,"INCLINATION":14.918,"RA_OF_ASC_NODE":353.6893,"ARG_OF_PERICENTER":220.3837,"MEAN_ANOMALY":164.6164,"EPHEMERIS_TYPE":0,"CLASSIFICATION_TYPE":"U","NORAD_CAT_ID":21759,"ELEMENT_SET_NO":999,"REV_AT_EPOCH":11119,"BSTAR":0,"MEAN_MOTION_DOT":-1.06e-6,"MEAN_MOTION_DDOT":0},{"OBJECT_NAME":"GORIZONT 25 [-]","OBJECT_ID":"1992-017A","EPOCH":"2022-08-18T00:01:10.998336","MEAN_MOTION":0.99851641,"ECCENTRICITY":0.0030022,"INCLINATION":14.4615,"RA_OF_ASC_NODE":353.032,"ARG_OF_PERICENTER":83.2552,"MEAN_ANOMALY":278.7598,"EPHEMERIS_TYPE":0,"CLASSIFICATION_TYPE":"U","NORAD_CAT_ID":21922,"ELEMENT_SET_NO":999,"REV_AT_EPOCH":11097,"BSTAR":0,"MEAN_MOTION_DOT":7.0e-7,"MEAN_MOTION_DDOT":0},{"OBJECT_NAME":"GORIZONT 26 [-]","OBJECT_ID":"1992-043A","EPOCH":"2022-08-18T20:05:22.928352","MEAN_MOTION":0.9924072,"ECCENTRICITY":0.0029983,"INCLINATION":14.6292,"RA_OF_ASC_NODE":355.0228,"ARG_OF_PERICENTER":231.4768,"MEAN_ANOMALY":306.0961,"EPHEMERIS_TYPE":0,"CLASSIFICATION_TYPE":"U","NORAD_CAT_ID":22041,"ELEMENT_SET_NO":999,"REV_AT_EPOCH":10959,"BSTAR":0,"MEAN_MOTION_DOT":-4.5e-7,"MEAN_MOTION_DDOT":0},{"OBJECT_NAME":"GORIZONT 27 [-]","OBJECT_ID":"1992-082A","EPOCH":"2022-08-18T20:31:52.360032","MEAN_MOTION":1.00139048,"ECCENTRICITY":0.001154,"INCLINATION":14.5462,"RA_OF_ASC_NODE":354.6225,"ARG_OF_PERICENTER":17.7595,"MEAN_ANOMALY":344.8203,"EPHEMERIS_TYPE":0,"CLASSIFICATION_TYPE":"U","NORAD_CAT_ID":22245,"ELEMENT_SET_NO":999,"REV_AT_EPOCH":11311,"BSTAR":0,"MEAN_MOTION_DOT":-1.54e-6,"MEAN_MOTION_DDOT":0},{"OBJECT_NAME":"GORIZONT 28 [-]","OBJECT_ID":"1993-069A","EPOCH":"2022-08-18T09:57:42.632928","MEAN_MOTION":0.99648397,"ECCENTRICITY":0.0035912,"INCLINATION":14.683,"RA_OF_ASC_NODE":358.4831,"ARG_OF_PERICENTER":131.1706,"MEAN_ANOMALY":230.2618,"EPHEMERIS_TYPE":0,"CLASSIFICATION_TYPE":"U","NORAD_CAT_ID":22880,"ELEMENT_SET_NO":999,"REV_AT_EPOCH":10519,"BSTAR":0,"MEAN_MOTION_DOT":1.8e-7,"MEAN_MOTION_DDOT":0},{"OBJECT_NAME":"GORIZONT 29 [-]","OBJECT_ID":"1993-072A","EPOCH":"2022-08-18T21:08:58.005024","MEAN_MOTION":1.00158903,"ECCENTRICITY":0.0008824,"INCLINATION":14.5957,"RA_OF_ASC_NODE":357.9452,"ARG_OF_PERICENTER":354.8695,"MEAN_ANOMALY":295.647,"EPHEMERIS_TYPE":0,"CLASSIFICATION_TYPE":"U","NORAD_CAT_ID":22907,"ELEMENT_SET_NO":999,"REV_AT_EPOCH":10519,"BSTAR":0,"MEAN_MOTION_DOT":-2.8e-7,"MEAN_MOTION_DDOT":0},{"OBJECT_NAME":"GORIZONT 30 [-]","OBJECT_ID":"1994-030A","EPOCH":"2022-08-18T16:50:00.695616","MEAN_MOTION":1.00285699,"ECCENTRICITY":0.0003039,"INCLINATION":14.6075,"RA_OF_ASC_NODE":358.8539,"ARG_OF_PERICENTER":138.6039,"MEAN_ANOMALY":226.0341,"EPHEMERIS_TYPE":0,"CLASSIFICATION_TYPE":"U","NORAD_CAT_ID":23108,"ELEMENT_SET_NO":999,"REV_AT_EPOCH":10344,"BSTAR":0,"MEAN_MOTION_DOT":-2.75e-6,"MEAN_MOTION_DDOT":0},{"OBJECT_NAME":"GORIZONT 31 [-]","OBJECT_ID":"1996-005A","EPOCH":"2022-08-18T09:43:37.056000","MEAN_MOTION":0.99883242,"ECCENTRICITY":0.0018378,"INCLINATION":14.5119,"RA_OF_ASC_NODE":5.0593,"ARG_OF_PERICENTER":197.1048,"MEAN_ANOMALY":168.0247,"EPHEMERIS_TYPE":0,"CLASSIFICATION_TYPE":"U","NORAD_CAT_ID":23775,"ELEMENT_SET_NO":999,"REV_AT_EPOCH":9707,"BSTAR":0,"MEAN_MOTION_DOT":-8.3e-7,"MEAN_MOTION_DDOT":0},{"OBJECT_NAME":"GORIZONT 32 [-]","OBJECT_ID":"1996-034A","EPOCH":"2022-08-18T23:18:54.273600","MEAN_MOTION":1.001614,"ECCENTRICITY":0.0008161,"INCLINATION":14.4599,"RA_OF_ASC_NODE":5.574,"ARG_OF_PERICENTER":2.3349,"MEAN_ANOMALY":167.0456,"EPHEMERIS_TYPE":0,"CLASSIFICATION_TYPE":"U","NORAD_CAT_ID":23880,"ELEMENT_SET_NO":999,"REV_AT_EPOCH":9603,"BSTAR":0,"MEAN_MOTION_DOT":8.2e-7,"MEAN_MOTION_DDOT":0},{"OBJECT_NAME":"GORIZONT 33 [-]","OBJECT_ID":"2000-029A","EPOCH":"2022-08-18T16:56:34.760832","MEAN_MOTION":1.00319328,"ECCENTRICITY":0.0004878,"INCLINATION":13.162,"RA_OF_ASC_NODE":16.7421,"ARG_OF_PERICENTER":97.136,"MEAN_ANOMALY":73.303,"EPHEMERIS_TYPE":0,"CLASSIFICATION_TYPE":"U","NORAD_CAT_ID":26372,"ELEMENT_SET_NO":999,"REV_AT_EPOCH":8140,"BSTAR":0,"MEAN_MOTION_DOT":-2.58e-6,"MEAN_MOTION_DDOT":0}]