GORIZONT 18 [-]         
1 20107U 89052A   22230.57759729  .00000001  00000+0  00000+0 0  9993
2 20107  13.8731 344.4933 0032632 318.6818  72.8239  0.99402461120500
GORIZONT 19 [-]         
1 20263U 89081A   22230.86637023  .00000071  00000+0  00000+0 0  9999
2 20263  13.6036 343.6827 0004020 187.5237 158.5851  1.00335924 33316
GORIZONT 20 [-]         
1 20659U 90054A   22230.87756484 -.00000306  00000+0  00000+0 0  9996
2 20659  14.0374 346.5102 0007305 160.8975 232.7508  1.00276019117670
GORIZONT 21 [-]         
1 20923U 90094A   22230.83759413 -.00000203  00000+0  00000+0 0  9991
2 20923  14.0499 347.2810 0005136 188.0870   0.0081  1.00386508116421
GORIZONT 22 [-]         
1 20953U 90102A   22230.53913632 -.00000298  00000+0  00000+0 0  9990
2 20953  14.0085 347.6508 0002815  42.9265 270.8980  1.00282427116341
GORIZONT 23 [-]         
1 21533U 91046A   22230.03729740 -.00000126  00000+0  00000+0 0  9993
2 21533  14.7658 351.7961 0001984 328.4274  36.3608  0.98910020 32854
GORIZONT 24 [-]         
1 21759U 91074A   22230.84531837 -.00000106  00000+0  00000+0 0  9999
2 21759  14.9180 353.6893 0017316 220.3837 164.6164  0.98442871111193
GORIZONT 25 [-]         
1 21922U 92017A   22230.00082174  .00000070  00000+0  00000+0 0  9991
2 21922  14.4615 353.0320 0030022  83.2552 278.7598  0.99851641110974
GORIZONT 26 [-]         
1 22041U 92043A   22230.83707093 -.00000045  00000+0  00000+0 0  9991
2 22041  14.6292 355.0228 0029983 231.4768 306.0961  0.99240720109594
GORIZONT 27 [-]         
1 22245U 92082A   22230.85546713 -.00000154  00000+0  00000+0 0  9993
2 22245  14.5462 354.6225 0011540  17.7595 344.8203  1.00139048113118
GORIZONT 28 [-]         
1 22880U 93069A   22230.41507677  .00000018  00000+0  00000+0 0  9990
2 22880  14.6830 358.4831 0035912 131.1706 230.2618  0.99648397105198
GORIZONT 29 [-]         
1 22907U 93072A   22230.88122691 -.00000028  00000+0  00000+0 0  9996
2 22907  14.5957 357.9452 0008824 354.8695 295.6470  1.00158903105196
GORIZONT 30 [-]         
1 23108U 94030A   22230.70139694 -.00000275  00000+0  00000+0 0  9991
2 23108  14.6075 358.8539 0003039 138.6039 226.0341  1.00285699103445
GORIZONT 31 [-]         
1 23775U 96005A   22230.40529000 -.00000083  00000+0  00000+0 0  9993
2 23775  14.5119   5.0593 0018378 197.1048 168.0247  0.99883242 97072
GORIZONT 32 [-]         
1 23880U 96034A   22230.97146150  .00000082  00000+0  00000+0 0  9993
2 23880  14.4599   5.5740 0008161   2.3349 167.0456  1.00161400 96033
GORIZONT 33 [-]         
1 26372U 00029A   22230.70595788 -.00000258  00000+0  00000+0 0  9993
2 26372  13.1620  16.7421 0004878  97.1360  73.3030  1.00319328 81405
